start=new Date('2023-05-27T00:00:00.000Z').valueOf();
sats=[{"GP_ID":"232588801","APOAPSIS":"449.073","OBJECT_NAME":"STARLINK-5940","ECCENTRICITY":"0.00013600","OBJECT_TYPE":"PAYLOAD","TLE_LINE2":"2 56012  42.9982 177.1492 0001360 272.4739 202.3420 15.39311887  1308","INCLINATION":"42.9982","TIME_SYSTEM":"UTC","EPOCH":"2023-05-26T22:00:01.999584","RCS_SIZE":"LARGE","CLASSIFICATION_TYPE":"U","PERIOD":"93.548","MEAN_MOTION":"15.39311887","ELEMENT_SET_NO":"999","LAUNCH_DATE":"2023-03-24","CENTER_NAME":"EARTH","TLE_LINE1":"1 56012U 23042AC  23146.91668981 -.00868507  00000-0 -23612-1 0  9990","OBJECT_ID":"2023-042AC","SITE":"AFETR","FILE":"3917850","MEAN_MOTION_DDOT":"0.0000000000000","REV_AT_EPOCH":"130","REF_FRAME":"TEME","SEMIMAJOR_AXIS":"6826.280","ARG_OF_PERICENTER":"272.4739","MEAN_MOTION_DOT":"-0.00868507","COUNTRY_CODE":"US","RA_OF_ASC_NODE":"177.1492","NORAD_CAT_ID":"56012","DECAY_DATE":null,"EPHEMERIS_TYPE":"0","MEAN_ANOMALY":"202.3420","PERIAPSIS":"447.217","BSTAR":"-0.02361200000000","MEAN_ELEMENT_THEORY":"SGP4"},{"ARG_OF_PERICENTER":"263.5186","MEAN_MOTION_DOT":"0.00002588","REV_AT_EPOCH":"130","REF_FRAME":"TEME","SEMIMAJOR_AXIS":"6931.224","MEAN_MOTION_DDOT":"0.0000000000000","FILE":"3917850","BSTAR":"0.00019642000000","MEAN_ELEMENT_THEORY":"SGP4","PERIAPSIS":"552.189","MEAN_ANOMALY":"38.2256","COUNTRY_CODE":"US","RA_OF_ASC_NODE":"186.3007","NORAD_CAT_ID":"56013","DECAY_DATE":null,"EPHEMERIS_TYPE":"0","TIME_SYSTEM":"UTC","EPOCH":"2023-05-26T22:00:01.999584","INCLINATION":"42.9991","OBJECT_TYPE":"PAYLOAD","TLE_LINE2":"2 56013  42.9991 186.3007 0001299 263.5186  38.2256 15.04484934  1300","GP_ID":"232590053","OBJECT_NAME":"STARLINK-5941","APOAPSIS":"553.990","ECCENTRICITY":"0.00012990","TLE_LINE1":"1 56013U 23042AD  23146.91668981  .00002588  00000-0  19642-3 0  9998","OBJECT_ID":"2023-042AD","SITE":"AFETR","ELEMENT_SET_NO":"999","LAUNCH_DATE":"2023-03-24","CENTER_NAME":"EARTH","MEAN_MOTION":"15.04484934","RCS_SIZE":"LARGE","CLASSIFICATION_TYPE":"U","PERIOD":"95.714"},{"REF_FRAME":"TEME","SEMIMAJOR_AXIS":"6824.300","REV_AT_EPOCH":"130","ARG_OF_PERICENTER":"272.7384","MEAN_MOTION_DOT":"-0.00868855","FILE":"3917850","MEAN_MOTION_DDOT":"0.0000000000000","PERIAPSIS":"445.245","BSTAR":"-0.02310300000000","MEAN_ELEMENT_THEORY":"SGP4","RA_OF_ASC_NODE":"177.1158","COUNTRY_CODE":"US","NORAD_CAT_ID":"56014","DECAY_DATE":null,"EPHEMERIS_TYPE":"0","MEAN_ANOMALY":"216.0557","INCLINATION":"42.9980","EPOCH":"2023-05-26T22:00:01.999584","TIME_SYSTEM":"UTC","ECCENTRICITY":"0.00013480","GP_ID":"232589803","OBJECT_NAME":"STARLINK-5942","APOAPSIS":"447.085","TLE_LINE2":"2 56014  42.9980 177.1158 0001348 272.7384 216.0557 15.39981899  1301","OBJECT_TYPE":"PAYLOAD","CENTER_NAME":"EARTH","ELEMENT_SET_NO":"999","LAUNCH_DATE":"2023-03-24","OBJECT_ID":"2023-042AE","SITE":"AFETR","TLE_LINE1":"1 56014U 23042AE  23146.91668981 -.00868855  00000-0 -23103-1 0  9993","PERIOD":"93.508","RCS_SIZE":"LARGE","CLASSIFICATION_TYPE":"U","MEAN_MOTION":"15.39981899"},{"RA_OF_ASC_NODE":"177.1391","COUNTRY_CODE":"US","DECAY_DATE":null,"NORAD_CAT_ID":"56015","EPHEMERIS_TYPE":"0","MEAN_ANOMALY":"208.5245","PERIAPSIS":"446.633","BSTAR":"-0.02348000000000","MEAN_ELEMENT_THEORY":"SGP4","FILE":"3917850","MEAN_MOTION_DDOT":"0.0000000000000","REV_AT_EPOCH":"130","REF_FRAME":"TEME","SEMIMAJOR_AXIS":"6825.693","ARG_OF_PERICENTER":"270.6050","MEAN_MOTION_DOT":"-0.00869283","RCS_SIZE":"LARGE","CLASSIFICATION_TYPE":"U","PERIOD":"93.536","MEAN_MOTION":"15.39510338","ELEMENT_SET_NO":"999","LAUNCH_DATE":"2023-03-24","CENTER_NAME":"EARTH","TLE_LINE1":"1 56015U 23042AF  23146.91668981 -.00869283  00000-0 -23480-1 0  9998","OBJECT_ID":"2023-042AF","SITE":"AFETR","GP_ID":"232588551","APOAPSIS":"448.484","OBJECT_NAME":"STARLINK-5939","ECCENTRICITY":"0.00013560","OBJECT_TYPE":"PAYLOAD","TLE_LINE2":"2 56015  42.9980 177.1391 0001356 270.6050 208.5245 15.39510338  1303","INCLINATION":"42.9980","TIME_SYSTEM":"UTC","EPOCH":"2023-05-26T22:00:01.999584"},{"ARG_OF_PERICENTER":"271.0878","MEAN_MOTION_DOT":"-0.00869325","REF_FRAME":"TEME","SEMIMAJOR_AXIS":"6820.468","REV_AT_EPOCH":"130","MEAN_MOTION_DDOT":"0.0000000000000","FILE":"3917850","BSTAR":"-0.02213600000000","MEAN_ELEMENT_THEORY":"SGP4","PERIAPSIS":"441.430","MEAN_ANOMALY":"242.5822","COUNTRY_CODE":"US","RA_OF_ASC_NODE":"177.0548","EPHEMERIS_TYPE":"0","DECAY_DATE":null,"NORAD_CAT_ID":"56016","EPOCH":"2023-05-26T22:00:01.999584","TIME_SYSTEM":"UTC","INCLINATION":"42.9981","TLE_LINE2":"2 56016  42.9981 177.0548 0001324 271.0878 242.5822 15.41279869  1309","OBJECT_TYPE":"PAYLOAD","ECCENTRICITY":"0.00013240","GP_ID":"232589302","OBJECT_NAME":"STARLINK-5943","APOAPSIS":"443.236","OBJECT_ID":"2023-042AG","SITE":"AFETR","TLE_LINE1":"1 56016U 23042AG  23146.91668981 -.00869325  00000-0 -22136-1 0  9993","CENTER_NAME":"EARTH","ELEMENT_SET_NO":"999","LAUNCH_DATE":"2023-03-24","MEAN_MOTION":"15.41279869","PERIOD":"93.429","RCS_SIZE":"LARGE","CLASSIFICATION_TYPE":"U"},{"FILE":"3917850","MEAN_MOTION_DDOT":"0.0000000000000","REV_AT_EPOCH":"130","SEMIMAJOR_AXIS":"6822.996","REF_FRAME":"TEME","MEAN_MOTION_DOT":"-0.00870020","ARG_OF_PERICENTER":"265.5064","NORAD_CAT_ID":"56017","DECAY_DATE":null,"EPHEMERIS_TYPE":"0","RA_OF_ASC_NODE":"177.0940","COUNTRY_CODE":"US","MEAN_ANOMALY":"232.0531","PERIAPSIS":"443.947","MEAN_ELEMENT_THEORY":"SGP4","BSTAR":"-0.02279900000000","APOAPSIS":"445.775","GP_ID":"232589553","OBJECT_NAME":"STARLINK-5934","ECCENTRICITY":"0.00013400","OBJECT_TYPE":"PAYLOAD","TLE_LINE2":"2 56017  42.9981 177.0940 0001340 265.5064 232.0531 15.40423290  1308","INCLINATION":"42.9981","TIME_SYSTEM":"UTC","EPOCH":"2023-05-26T22:00:01.999584","CLASSIFICATION_TYPE":"U","RCS_SIZE":"LARGE","PERIOD":"93.481","MEAN_MOTION":"15.40423290","ELEMENT_SET_NO":"999","LAUNCH_DATE":"2023-03-24","CENTER_NAME":"EARTH","TLE_LINE1":"1 56017U 23042AH  23146.91668981 -.00870020  00000-0 -22799-1 0  9993","SITE":"AFETR","OBJECT_ID":"2023-042AH"},{"BSTAR":"-0.02225900000000","MEAN_ELEMENT_THEORY":"SGP4","PERIAPSIS":"442.066","MEAN_ANOMALY":"241.0613","COUNTRY_CODE":"US","RA_OF_ASC_NODE":"177.0642","NORAD_CAT_ID":"56018","DECAY_DATE":null,"EPHEMERIS_TYPE":"0","ARG_OF_PERICENTER":"268.6893","MEAN_MOTION_DOT":"-0.00867952","REV_AT_EPOCH":"130","REF_FRAME":"TEME","SEMIMAJOR_AXIS":"6821.106","MEAN_MOTION_DDOT":"0.0000000000000","FILE":"3917850","TLE_LINE1":"1 56018U 23042AJ  23146.91668981 -.00867952  00000-0 -22259-1 0  9995","OBJECT_ID":"2023-042AJ","SITE":"AFETR","ELEMENT_SET_NO":"999","LAUNCH_DATE":"2023-03-24","CENTER_NAME":"EARTH","MEAN_MOTION":"15.41063510","RCS_SIZE":"LARGE","CLASSIFICATION_TYPE":"U","PERIOD":"93.442","TIME_SYSTEM":"UTC","EPOCH":"2023-05-26T22:00:01.999584","INCLINATION":"42.9982","OBJECT_TYPE":"PAYLOAD","TLE_LINE2":"2 56018  42.9982 177.0642 0001327 268.6893 241.0613 15.41063510  1305","GP_ID":"232590304","APOAPSIS":"443.876","OBJECT_NAME":"STARLINK-5945","ECCENTRICITY":"0.00013270"},{"TIME_SYSTEM":"UTC","EPOCH":"2023-05-26T22:00:01.999584","INCLINATION":"42.9980","OBJECT_TYPE":"PAYLOAD","TLE_LINE2":"2 56019  42.9980 177.1056 0001346 267.5819 225.3011 15.40181938  1302","OBJECT_NAME":"STARLINK-5949","GP_ID":"232589052","APOAPSIS":"446.492","ECCENTRICITY":"0.00013460","TLE_LINE1":"1 56019U 23042AK  23146.91668981 -.00870332  00000-0 -22992-1 0  9996","OBJECT_ID":"2023-042AK","SITE":"AFETR","ELEMENT_SET_NO":"999","LAUNCH_DATE":"2023-03-24","CENTER_NAME":"EARTH","MEAN_MOTION":"15.40181938","RCS_SIZE":"LARGE","CLASSIFICATION_TYPE":"U","PERIOD":"93.495","ARG_OF_PERICENTER":"267.5819","MEAN_MOTION_DOT":"-0.00870332","REV_AT_EPOCH":"130","REF_FRAME":"TEME","SEMIMAJOR_AXIS":"6823.709","MEAN_MOTION_DDOT":"0.0000000000000","FILE":"3917850","BSTAR":"-0.02299200000000","MEAN_ELEMENT_THEORY":"SGP4","PERIAPSIS":"444.655","MEAN_ANOMALY":"225.3011","RA_OF_ASC_NODE":"177.1056","COUNTRY_CODE":"US","DECAY_DATE":null,"EPHEMERIS_TYPE":"0","NORAD_CAT_ID":"56019"},{"ARG_OF_PERICENTER":"273.0601","MEAN_MOTION_DOT":"-0.00870490","REF_FRAME":"TEME","SEMIMAJOR_AXIS":"6821.687","REV_AT_EPOCH":"130","MEAN_MOTION_DDOT":"0.0000000000000","FILE":"3917850","BSTAR":"-0.02247700000000","MEAN_ELEMENT_THEORY":"SGP4","PERIAPSIS":"442.642","MEAN_ANOMALY":"232.9449","RA_OF_ASC_NODE":"177.0733","COUNTRY_CODE":"US","DECAY_DATE":null,"NORAD_CAT_ID":"56020","EPHEMERIS_TYPE":"0","EPOCH":"2023-05-26T22:00:01.999584","TIME_SYSTEM":"UTC","INCLINATION":"42.9982","TLE_LINE2":"2 56020  42.9982 177.0733 0001334 273.0601 232.9449 15.40866714  1306","OBJECT_TYPE":"PAYLOAD","ECCENTRICITY":"0.00013340","GP_ID":"232588802","APOAPSIS":"444.462","OBJECT_NAME":"STARLINK-5912","OBJECT_ID":"2023-042AL","SITE":"AFETR","TLE_LINE1":"1 56020U 23042AL  23146.91668981 -.00870490  00000-0 -22477-1 0  9991","CENTER_NAME":"EARTH","LAUNCH_DATE":"2023-03-24","ELEMENT_SET_NO":"999","MEAN_MOTION":"15.40866714","PERIOD":"93.454","RCS_SIZE":"LARGE","CLASSIFICATION_TYPE":"U"},{"FILE":"3917850","MEAN_MOTION_DDOT":"0.0000000000000","REF_FRAME":"TEME","SEMIMAJOR_AXIS":"6822.409","REV_AT_EPOCH":"130","ARG_OF_PERICENTER":"265.9497","MEAN_MOTION_DOT":"-0.00868908","RA_OF_ASC_NODE":"177.0846","COUNTRY_CODE":"US","DECAY_DATE":null,"NORAD_CAT_ID":"56021","EPHEMERIS_TYPE":"0","MEAN_ANOMALY":"235.5375","PERIAPSIS":"443.361","BSTAR":"-0.02261700000000","MEAN_ELEMENT_THEORY":"SGP4","ECCENTRICITY":"0.00013390","GP_ID":"232590054","APOAPSIS":"445.188","OBJECT_NAME":"STARLINK-5907","TLE_LINE2":"2 56021  42.9981 177.0846 0001339 265.9497 235.5375 15.40621977  1306","OBJECT_TYPE":"PAYLOAD","INCLINATION":"42.9981","EPOCH":"2023-05-26T22:00:01.999584","TIME_SYSTEM":"UTC","PERIOD":"93.469","RCS_SIZE":"LARGE","CLASSIFICATION_TYPE":"U","MEAN_MOTION":"15.40621977","CENTER_NAME":"EARTH","LAUNCH_DATE":"2023-03-24","ELEMENT_SET_NO":"999","OBJECT_ID":"2023-042AM","SITE":"AFETR","TLE_LINE1":"1 56021U 23042AM  23146.91668981 -.00868908  00000-0 -22617-1 0  9999"}];
